COSMOS 2425 (716)       
1 29670U 06062A   21074.40522295  .00000023  00000-0  00000-0 0  9996
2 29670  64.8707 258.6248 0024737 349.8159   6.2653  2.13113755110669
COSMOS 2433 (720)       
1 32275U 07052A   21075.35989995 -.00000071  00000-0  00000-0 0  9994
2 32275  66.0474  19.8759 0004427 278.2093 268.1845  2.13104146104208
COSMOS 2432 (719)       
1 32276U 07052B   21075.41669137 -.00000071  00000-0  00000-0 0  9995
2 32276  66.0593  19.9685 0012252 325.7708 213.6891  2.13103502104207
COSMOS 2434 (721)       
1 32393U 07065A   21074.40003301  .00000022  00000-0  00000-0 0  9997
2 32393  64.4894 257.1275 0005131  77.2766 340.8636  2.13103024102897
COSMOS 2436 (723)       
1 32395U 07065C   21075.35629104  .00000030  00000-0  00000-0 0  9998
2 32395  64.4952 257.1471 0016012   7.7874 200.0960  2.13102888102849
COSMOS 2456 (730)       
1 36111U 09070A   21075.19411970  .00000025  00000-0  00000-0 0  9992
2 36111  64.2602 136.7811 0004402 308.2596 170.8535  2.13099120 87577
COSMOS 2457 (733)       
1 36112U 09070B   21075.35379872  .00000024  00000-0  00000-0 0  9994
2 36112  64.2437 136.6609 0005082 175.5811 189.6711  2.13101347 87588
COSMOS 2459 (731)       
1 36400U 10007A   21075.45243711 -.00000072  00000-0  00000-0 0  9993
2 36400  65.9447  18.8100 0026925 346.2068 127.4723  2.13104980 85929
COSMOS 2461 (735)       
1 36401U 10007B   21075.07028455 -.00000073  00000-0  00000-0 0  9999
2 36401  65.9419  18.7873 0021296   1.6116 180.6350  2.13103762 85921
COSMOS 2460 (732)       
1 36402U 10007C   21075.46143826 -.00000072  00000-0  00000-0 0  9992
2 36402  65.9281  18.7345 0002262 315.3956 110.8132  2.13106487 85933
COSMOS 2464 (736)       
1 37139U 10041C   21075.46776259  .00000030  00000-0  00000-0 0  9993
2 37139  64.0901 256.3943 0029073  14.2549   4.6230  2.13100681 81997
COSMOS 2471 (701K)      
1 37372U 11009A   21075.14289921 -.00000073  00000-0  00000-0 0  9995
2 37372  65.9239  18.6813 0013732 231.4156 112.8814  2.13081298 78197
COSMOS 2476 (744)       
1 37867U 11064A   21075.55868066  .00000023  00000-0  00000+0 0  9996
2 37867  64.5564 137.9452 0021014 238.1095  62.2370  2.13101833 72922
COSMOS 2477 (745)       
1 37868U 11064B   21075.44491397  .00000024  00000-0  00000-0 0  9996
2 37868  64.5654 138.0091 0018529 239.5039 151.9300  2.13101621 72883
COSMOS 2475 (743)       
1 37869U 11064C   21075.46550197  .00000024  00000-0  00000-0 0  9993
2 37869  64.5712 138.0105 0022494 259.0485 105.7890  2.13101766 72895
COSMOS 2485 (747)       
1 39155U 13019A   21075.21197369  .00000025  00000-0  00000-0 0  9997
2 39155  64.7230 138.2853 0021519 234.0257 204.8297  2.13101792 61395
COSMOS 2492 (754)       
1 39620U 14012A   21075.42974906 -.00000072  00000-0  00000-0 0  9994
2 39620  65.8183  18.4784 0015489 322.8005 318.0223  2.13103137 54348
COSMOS 2500 (755)       
1 40001U 14032A   21075.35908882 -.00000073  00000-0  00000-0 0  9994
2 40001  65.7576  18.3776 0006037 225.7618 220.7103  2.13102521 52562
COSMOS 2501 (702K)      
1 40315U 14075A   21075.51370350  .00000030  00000-0  00000-0 0  9992
2 40315  63.7991 257.2351 0015597 206.6416 164.4418  2.13101287 48978
COSMOS 2514 (751)       
1 41330U 16008A   21075.36487278 -.00000073  00000-0  00000-0 0  9997
2 41330  65.5590  18.1813 0009708 227.0352  46.8372  2.13102854 39727
COSMOS 2516 (753)       
1 41554U 16032A   21075.62510205  .00000031  00000-0  00000-0 0  9991
2 41554  64.0244 257.3781 0011270 212.6644 154.0743  2.13106715 37347
COSMOS 2522 (752)       
1 42939U 17055A   21074.51618672  .00000022  00000-0  00000+0 0  9998
2 42939  64.2596 257.6769 0004940 248.8796 211.9416  2.13101946 27071
COSMOS 2527 (756)       
1 43508U 18053A   21075.37101358  .00000025  00000-0  00000-0 0  9997
2 43508  64.8877 138.1861 0008352 234.7523 193.8793  2.13102526 21380
COSMOS 2529 (757)       
1 43687U 18086A   21075.39005542  .00000030  00000-0  00000-0 0  9997
2 43687  64.4711 257.8400 0007633 279.6963  87.0761  2.13101983 18400
COSMOS 2534 (758)       
1 44299U 19030A   21075.63251347  .00000032  00000-0  00000-0 0  9992
2 44299  64.5412 257.6752 0011187 299.9363  27.7204  2.13101959 14047
COSMOS 2544 (759)       
1 44850U 19088A   21075.37960653  .00000025  00000-0  00000-0 0  9998
2 44850  64.8715 138.0454 0012514 263.6781 215.3899  2.13102330  9826
COSMOS 2545 (760)       
1 45358U 20018A   21075.20796666 -.00000074  00000-0  00000-0 0  9995
2 45358  64.8900  19.1718 0010191 261.8610 295.6660  2.13102696  7761
